{"type": "FeatureCollection", "features": [{"type": "Feature", "geometry": {"type": "LineString", "coordinates": [[77.502689, 13.080811], [77.502615, 13.081077], [77.502596, 13.081227], [77.502565, 13.081236], [77.502586, 13.081071], [77.50266, 13.080803], [77.502514, 13.080407], [77.502442, 13.080329], [77.50239, 13.080273], [77.502404, 13.080246], [77.50254, 13.080153], [77.502557, 13.080177], [77.502421, 13.08027], [77.502298, 13.080237], [77.50205, 13.079901], [77.501972, 13.079795], [77.501859, 13.079642], [77.501821, 13.07959], [77.501776, 13.079529], [77.501499, 13.079195], [77.501495, 13.079188], [77.501503, 13.078992], [77.501568, 13.07891], [77.501611, 13.078865], [77.501672, 13.078806], [77.501988, 13.078524], [77.502182, 13.078278], [77.502282, 13.078172], [77.502413, 13.078045], [77.502517, 13.077933], [77.502862, 13.077551], [77.502964, 13.07743], [77.503561, 13.076701], [77.50399, 13.076276], [77.504085, 13.076182], [77.504216, 13.076053], [77.504311, 13.075958], [77.504599, 13.075673], [77.504667, 13.075579], [77.50466, 13.07551], [77.504661, 13.075387], [77.504611, 13.075311], [77.50456, 13.075248], [77.504476, 13.075144], [77.504381, 13.075025], [77.504298, 13.074921], [77.503955, 13.074488], [77.503557, 13.07403], [77.503275, 13.073701], [77.503176, 13.073557], [77.503146, 13.0735], [77.503108, 13.07341], [77.5031, 13.073377], [77.503105, 13.073251], [77.50313, 13.073134], [77.503159, 13.073046], [77.503175, 13.07301], [77.503264, 13.072698], [77.503275, 13.072671], [77.503306, 13.072591], [77.50341, 13.072327], [77.503836, 13.07141], [77.503917, 13.071195], [77.50396, 13.071011], [77.503964, 13.070924], [77.503959, 13.070761], [77.503923, 13.070516], [77.503911, 13.070432], [77.503884, 13.070246], [77.503873, 13.07016], [77.503846, 13.069912], [77.503837, 13.069827], [77.503836, 13.069819], [77.503709, 13.069027], [77.503695, 13.068941], [77.503671, 13.06879], [77.503562, 13.068159], [77.503364, 13.066939], [77.503354, 13.066747], [77.503353, 13.066613], [77.503354, 13.066609], [77.503392, 13.066488], [77.503437, 13.066404], [77.503643, 13.066081], [77.503744, 13.06593], [77.503803, 13.065843], [77.503931, 13.065651], [77.503965, 13.065577], [77.503966, 13.065575], [77.503986, 13.065501], [77.504179, 13.065214], [77.504691, 13.06439], [77.504766, 13.064269], [77.504825, 13.064175], [77.504873, 13.064097], [77.504909, 13.064039], [77.505003, 13.063888], [77.505076, 13.063773], [77.505225, 13.063544], [77.505276, 13.063466], [77.505464, 13.063177], [77.505634, 13.062997], [77.505951, 13.062459], [77.505893, 13.062423], [77.505554, 13.062952], [77.505489, 13.063193], [77.505301, 13.063481], [77.505276, 13.063466], [77.505464, 13.063177], [77.505634, 13.062997], [77.505951, 13.062459], [77.505976, 13.062416], [77.506332, 13.06187], [77.506378, 13.061798], [77.506398, 13.061767], [77.506425, 13.061727], [77.506466, 13.061663], [77.506482, 13.061637], [77.506527, 13.061568], [77.506544, 13.061543], [77.506744, 13.061231], [77.506761, 13.061201], [77.506824, 13.061074], [77.506855, 13.06099], [77.506882, 13.060896], [77.506882, 13.060894], [77.50689, 13.060832], [77.506905, 13.060712], [77.506967, 13.060054], [77.50698, 13.059923], [77.507002, 13.059731], [77.50701, 13.059648], [77.507016, 13.059578], [77.507016, 13.059576], [77.507022, 13.059499], [77.507029, 13.059426], [77.507055, 13.059431], [77.507164, 13.05945], [77.507868, 13.059573], [77.50787, 13.059573], [77.508074, 13.059365], [77.508322, 13.058941], [77.508406, 13.058691], [77.50811, 13.058656], [77.507979, 13.05864], [77.507839, 13.058623], [77.507706, 13.058607], [77.507557, 13.058589], [77.507419, 13.058563], [77.507148, 13.058493], [77.507107, 13.058429], [77.507149, 13.05781], [77.507158, 13.057724], [77.507211, 13.057271], [77.5073, 13.056829], [77.507371, 13.056573], [77.507413, 13.056362], [77.507427, 13.056278], [77.50745, 13.056133], [77.507467, 13.055999], [77.50756, 13.055118], [77.507574, 13.054989], [77.50762, 13.054578], [77.507628, 13.054494], [77.507648, 13.054255], [77.507665, 13.054137], [77.507714, 13.053847], [77.507857, 13.052955], [77.507897, 13.05267], [77.507897, 13.05233], [77.507885, 13.051926], [77.507881, 13.051841], [77.507864, 13.051612], [77.507864, 13.051523], [77.507869, 13.051448], [77.50786, 13.051143], [77.507843, 13.050824], [77.507824, 13.050556], [77.507811, 13.050424], [77.507784, 13.0502], [77.507724, 13.049776], [77.507708, 13.049647], [77.507689, 13.049443], [77.507696, 13.049332], [77.507705, 13.049245], [77.507718, 13.049157], [77.507735, 13.049057], [77.507761, 13.048896], [77.507776, 13.048805], [77.507787, 13.048734], [77.507806, 13.048644], [77.507835, 13.04853], [77.507854, 13.048447], [77.507872, 13.048361], [77.507912, 13.048163], [77.507928, 13.048077], [77.507965, 13.047877], [77.507986, 13.047789], [77.50802, 13.047665], [77.508052, 13.047432], [77.508058, 13.047302], [77.508057, 13.047237], [77.508012, 13.04704], [77.507695, 13.046157], [77.507665, 13.046077], [77.50761, 13.045949]]}, "properties": {"kind": "corridor", "edgeCount": 77, "provenance": "OSM-derived network, corridor route computed by sumolib"}}, {"type": "Feature", "geometry": {"type": "Point", "coordinates": [77.50263, 13.081024]}, "properties": {"kind": "stop", "stopId": "sequence-001-observation-01", "name": "Chikka Banavara", "sequence": 1, "edgeId": "-75561410#5", "laneId": "-75561410#5_0", "distanceToRoadM": 25.84, "feasible": true, "sourceLat": 13.0810849, "sourceLon": 77.5028595, "provenance": "stop coords sourced/corrected; snapped to real SUMO lane"}}, {"type": "Feature", "geometry": {"type": "Point", "coordinates": [77.502459, 13.080244]}, "properties": {"kind": "stop", "stopId": "sequence-002-observation-01", "name": "Chikkabanavara circle", "sequence": 2, "edgeId": "-215040712#0", "laneId": "-215040712#0_0", "distanceToRoadM": 0.4, "feasible": true, "sourceLat": 13.0802544, "sourceLon": 77.5024369, "provenance": "stop coords sourced/corrected; snapped to real SUMO lane"}}, {"type": "Feature", "geometry": {"type": "Point", "coordinates": [77.50457, 13.075284]}, "properties": {"kind": "stop", "stopId": "sequence-003-observation-01", "name": "Railway Station Chikkabanavara", "sequence": 3, "edgeId": "85605697#0", "laneId": "85605697#0_0", "distanceToRoadM": 5.85, "feasible": true, "sourceLat": 13.0752188, "sourceLon": 77.5046049, "provenance": "stop coords sourced/corrected; snapped to real SUMO lane"}}, {"type": "Feature", "geometry": {"type": "Point", "coordinates": [77.5031, 13.073204]}, "properties": {"kind": "stop", "stopId": "sequence-004-observation-01", "name": "Janapriya Apartment", "sequence": 4, "edgeId": "85605697#5", "laneId": "85605697#5_0", "distanceToRoadM": 11.41, "feasible": true, "sourceLat": 13.0732691, "sourceLon": 77.5032089, "provenance": "stop coords sourced/corrected; snapped to real SUMO lane"}}, {"type": "Feature", "geometry": {"type": "Point", "coordinates": [77.503947, 13.070964]}, "properties": {"kind": "stop", "stopId": "sequence-005-observation-01", "name": "Sapthagiri Hospital", "sequence": 5, "edgeId": "85605697#7", "laneId": "85605697#7_0", "distanceToRoadM": 5.68, "feasible": true, "sourceLat": 13.0709663, "sourceLon": 77.5040142, "provenance": "stop coords sourced/corrected; snapped to real SUMO lane"}}, {"type": "Feature", "geometry": {"type": "Point", "coordinates": [77.503363, 13.067029]}, "properties": {"kind": "stop", "stopId": "sequence-006-observation-01", "name": "Sapthagiri College", "sequence": 6, "edgeId": "85605697#13", "laneId": "85605697#13_0", "distanceToRoadM": 7.73, "feasible": true, "sourceLat": 13.0670162, "sourceLon": 77.5034483, "provenance": "stop coords sourced/corrected; snapped to real SUMO lane"}}, {"type": "Feature", "geometry": {"type": "Point", "coordinates": [77.505346, 13.063412]}, "properties": {"kind": "stop", "stopId": "sequence-007-observation-01", "name": "Bone Mill", "sequence": 7, "edgeId": "-1090992211#4", "laneId": "-1090992211#4_0", "distanceToRoadM": 7.84, "feasible": true, "sourceLat": 13.0634505, "sourceLon": 77.5054067, "provenance": "stop coords sourced/corrected; snapped to real SUMO lane"}}, {"type": "Feature", "geometry": {"type": "Point", "coordinates": [77.507437, 13.059498]}, "properties": {"kind": "stop", "stopId": "sequence-008-observation-01", "name": "Bagalagunte Bus Station", "sequence": 8, "edgeId": "1263454560#1", "laneId": "1263454560#1_0", "distanceToRoadM": 15.73, "feasible": true, "sourceLat": 13.059358, "sourceLon": 77.507463, "provenance": "stop coords sourced/corrected; snapped to real SUMO lane"}}, {"type": "Feature", "geometry": {"type": "Point", "coordinates": [77.50713, 13.057877]}, "properties": {"kind": "stop", "stopId": "sequence-009-observation-01", "name": "Bagalagunte", "sequence": 9, "edgeId": "1418041721#6", "laneId": "1418041721#6_0", "distanceToRoadM": 6.95, "feasible": true, "sourceLat": 13.0578817, "sourceLon": 77.5072087, "provenance": "stop coords sourced/corrected; snapped to real SUMO lane"}}, {"type": "Feature", "geometry": {"type": "Point", "coordinates": [77.507848, 13.051238]}, "properties": {"kind": "stop", "stopId": "sequence-010-observation-01", "name": "Widia School", "sequence": 10, "edgeId": "1148196146#0", "laneId": "1148196146#0_0", "distanceToRoadM": 7.49, "feasible": true, "sourceLat": 13.0512374, "sourceLon": 77.5079321, "provenance": "stop coords sourced/corrected; snapped to real SUMO lane"}}, {"type": "Feature", "geometry": {"type": "Point", "coordinates": [77.507633, 13.04604]}, "properties": {"kind": "stop", "stopId": "sequence-011-observation-01", "name": "8th Mile", "sequence": 11, "edgeId": "1148196146#11", "laneId": "1148196146#11_0", "distanceToRoadM": 3.74, "feasible": true, "sourceLat": 13.0460514, "sourceLon": 77.5076914, "provenance": "stop coords sourced/corrected; snapped to real SUMO lane"}}]}